IRIDIUM 112             
1 41925U 17003J   25238.91970186  .00000089  00000+0  24723-4 0  9991
2 41925  86.3979 211.2067 0002226  85.1791 274.9659 14.34218250451098
IRIDIUM 111             
1 41926U 17003K   25238.90701493  .00000168  00000+0  52845-4 0  9998
2 41926  86.3981 211.2760 0002298  90.4558 269.6901 14.34217937451071
IRIDIUM 113             
1 42803U 17039A   25238.81721228  .00000073  00000+0  18877-4 0  9992
2 42803  86.3916  85.2289 0001958  84.7071 275.4348 14.34217572428997
IRIDIUM 123             
1 42804U 17039B   25238.92845989 -.00000017  00000+0 -13249-4 0  9994
2 42804  86.3963 116.6758 0002032  94.8746 265.2682 14.34217362427775
IRIDIUM 120             
1 42805U 17039C   25238.32248051  .00000227  00000+0  74143-4 0  9997
2 42805  86.3905  85.2564 0002401  91.1401 269.0070 14.34221182428911
IRIDIUM 115             
1 42806U 17039D   25238.94782802  .00000283  00000+0  78122-4 0  9996
2 42806  86.4444  85.0832 0002389 105.2971 254.8494 14.43279600431825
IRIDIUM 118             
1 42807U 17039E   25238.68109808  .00000120  00000+0  35889-4 0  9990
2 42807  86.3961 116.7789 0001980  82.8398 277.3023 14.34218097427737
IRIDIUM 117             
1 42808U 17039F   25237.93267206  .00000055  00000+0  12401-4 0  9997
2 42808  86.3962 117.0520 0001987  91.3629 268.7795 14.34218031427654
